#dP2019 11  5  0  0  0.00000000      96 __u+U ITR00 FIT  IAC
## 2078 172800.00000000   900.00000000 58792 0.0000000000000
+  115   C01C02C03C04C05C06C07C08C09C10C11C12C13C14C16C19C20
+        C21C22C23C24C25C26C27C28C29C30C32C33C34C35C36C37E01
+        E02E03E04E05E07E08E09E12E13E14E15E18E19E21E24E25E26
+        E27E30E31E33E36G01G02G03G04G05G06G07G08G09G10G11G12
+        G13G14G15G16G17G18G19G20G21G22G23G24G25G26G27G28G29
+        G30G31G32J01J02J03J07R01R02R03R05R06R07R08R09R11R12
+        R13R14R15R16R17R18R19R20R21R22R23R24R26  0  0  0  0
++        13 13 13  0 13  8  8  8  8  8  8  8  8  8  8  8  8
++         8  8  8  8  8  8  7  7  7  7  8  8  8  8  8  8  4
++         4  4  4  4  4  4  4  4  4  4  4  4  4  4  4  0  4
++         4  4  4  4  4  3  3  3  4  3  3  4  3  3  3  3  3
++         4  3  3  3  3  4  3  3  3  3  3  4  3  3  3  3  0
++         3  3  3  9  8  8 14  6  5  6  5  8  5  5  5  5  5
++         6  5  5  6  5  5  6  6  5  5  5  6  8  0  0  0  0
%c M  cc GPS ccc cccc cccc cccc cccc ccccc ccccc ccccc ccccc
%c cc cc ccc ccc cccc cccc cccc cccc ccccc ccccc ccccc ccccc
%f  0.0000000  0.000000000  0.00000000000  0.000000000000000
%f  0.0000000  0.000000000  0.00000000000  0.000000000000000
%i    0    0    0    0      0      0      0      0         0
%i    0    0    0    0      0      0      0      0         0
/* INFORMATION & ANALYSIS CENTER (IAC)            RAPID DATA
/* S/V CLOCKS ARE ALIGNED TO GNSS TIME                      
/* G:C1WC2W R:C1PC2P E:C1XC5X C:C2IC6I J:C1CC2S             
/* PCV:IGS14_2076 OL/AL:FES2004  NONE     YN ORB:CoN CLK:CoN
*  2019 11 05 14  0  0.00000000
PC01 -32274.233726  27151.057042    448.277201    102.143245
PC02   4356.635567  41915.216857   -992.226326    758.337327
PC03 -14766.951517  39471.254944   -582.056806    481.425529
PC04      0.000000      0.000000      0.000000 999999.999999
PC05  21927.261643  35971.617572  -1118.818197    -41.430728
PC06 -17607.526789  37784.326783  -4342.961819    331.440013
PC07  -9255.817588  26516.545381  31745.237233   -242.713466
PC08 -24186.153787  21233.593964 -27341.648304    -27.835250
PC09  -7368.262553  39555.688741  12217.577518     93.369191
PC10   5412.521026  33863.361422  24973.919783   -337.281088
PC11 -10893.769640 -10856.944961  23342.797263     15.441179
PC12  12999.603761 -23407.817909   7768.360924    302.739299
PC13  -7501.112381  24123.880199 -33753.791134     90.382699
PC14 -15451.320741 -20833.676405 -10202.459578    107.188725
PC16 -15317.614646  39139.580222  -1563.748069   -909.624539
PC19  17748.936255  12815.360707  17328.491147    237.056979
PC20  11118.501257  25533.035595   2009.051890   -254.623812
PC21   2395.034248 -23419.148484  14979.510731    203.817250
PC22  14186.560638  -7529.664472  22815.110396   -320.823814
PC23 -24343.301306   4746.253746  12803.584529   -888.141486
PC24 -12754.924937 -16003.804109 -18979.174451   -880.200371
PC25 -26671.483242  -7131.392370  -4130.920719   -403.883952
PC26   7148.941415 -14934.132220 -22459.047797    449.263141
PC27 -13297.313599  23344.229551  -7536.008665    219.654255
PC28 -21677.755306  14433.995193  10050.133863    210.827438
PC29  17458.650989   2211.561530 -21659.254193    141.922939
PC30   3332.507798  18597.380289 -20530.088568    219.475232
PC32  -2216.020973  23455.220123 -14955.829492   -876.420242
PC33 -17813.829413 -12777.259077 -17260.745621   -538.194155
PC34  -3571.889703 -18441.523045  20641.043818   -209.935352
PC35  21212.338175 -15076.347096 -10105.919060   -520.618411
PC36  26423.979914   7880.636092   4341.350787   -918.008009
PC37  -8150.387872  14585.331379  22379.089132   -707.308505
PE01  17057.218405  20972.207072  12067.167268   -725.501681
PE02 -17135.020369 -20954.841677 -11981.725244     89.811554
PE03  -7251.839249 -25825.360615 -12505.394653   -229.687875
PE04  16118.776623   8313.509452  23391.963407   -399.680573
PE05   5969.043261 -28396.042006   5836.633073   -433.896302
PE07 -15617.681638  14350.623967 -20652.408462   -294.888291
PE08 -16083.612001  -7981.199514 -23534.611901   6267.462670
PE09  15373.249570 -14506.118387  20714.231265   6262.564342
PE12  23745.830693   1022.268338 -17642.877423   6114.830283
PE13 -26326.544404  13539.289235     11.624285    395.035135
PE14  13294.573604 -23940.072986  -2384.324650   -783.168456
PE15 -23887.329073   -632.684622  17482.198805    888.892198
PE18  -1770.063595  27249.574676 -12557.473892   -877.914700
PE19   5901.895968  26932.721607  10764.768080     -3.056866
PE21  -1999.118501  17570.720197  23743.858589   -564.224719
PE24  19971.768450  -3859.865178 -21498.798591   5782.986682
PE25   2062.010232 -17528.366245 -23749.174550 999999.999999
PE26 -13253.064058  19815.123860 -17551.905788   3912.017245
PE27 -20001.251534   3856.656041  21489.414719    352.066590
PE30 -26143.414351 -12219.890664   6609.592566   4409.374138
PE31  26196.916936  12092.405102  -6601.797030   -470.316895
PE33   7428.732799  14459.738309 -24729.379464   -471.729006
PE36  13316.184900 -19801.672681  17515.127149    640.670536
PG01   6018.701120  14066.530493 -21943.518639   -187.087559
PG02  16479.537307 -14680.413292  15307.072415   -340.611219
PG03  12531.049602  22640.566951  -6249.023608    -32.182728
PG04  14187.925317   5558.644572  21756.860676     -5.953515
PG05   4152.633932 -16977.721371  19804.722562     -3.098120
PG06  25630.307323  -6216.965098   3309.355928   -113.982086
PG07  21511.774900   7315.340168  14419.200729   -142.312880
PG08  -4591.924822  25180.621204  -6615.140183    -12.340822
PG09  10926.117582  12616.635658  20606.369816    -75.530519
PG10 -19618.656032  -5423.392434 -17117.569548   -122.648919
PG11   3255.446097  17158.542120 -20583.453950   -457.056617
PG12  -7336.817850 -23311.320551 -10814.037908    186.680650
PG13  12918.945862 -23155.113926    440.383061    -34.662313
PG14 -17197.463748  15633.085737 -12362.129329    -52.201839
PG15   1232.791450 -25309.832393  -7550.061546   -274.816663
PG16  -7246.878041  14331.496117  20871.340073    -90.179698
PG17  16782.063332  -5963.999585 -19255.112644    157.390285
PG18  -3386.047688  16082.607334 -21353.854079     98.067927
PG19  17954.277533 -12352.374949 -15491.854178   -243.934862
PG20 -21993.957144 -12486.862735  -8524.850165    527.391020
PG21 -23424.707164  -4005.183346  12436.036969    -90.918797
PG22   7510.893149  21974.510007 -12760.515267   -769.507542
PG23   4423.634013  21026.134122  15704.974235   -157.325206
PG24  -4030.682602 -15284.685548 -21521.686390     -4.494991
PG25 -17759.355025 -19782.155679   2291.279194    -16.756669
PG26 -14487.795572   6504.155526  21295.847011     77.510741
PG27 -12341.427811  22806.416030   4809.420520   -110.316300
PG28  18289.598065   6400.834222 -17505.503152    756.337140
PG29      0.000000      0.000000      0.000000 999999.999999
PG30  26346.907488     72.152863   4148.126587    -77.178806
PG31 -25305.281451   6971.898219   5419.912737     -1.145676
PG32 -17005.409060   6558.171718 -19213.695607    115.144761
PJ01 -19585.333052  25023.663970 -23143.139895   -334.087594
PJ02 -26875.118626  21813.260109  28907.926875     -7.140920
PJ03 -32286.043546  25976.550680  12839.012014     -5.632427
PJ07 -25381.549711  33681.889308    -12.263528     -0.570300
PR01  -1588.543280 -24682.695959   6204.914780     52.229698
PR02  -9880.761154 -18875.904740 -14038.980264    396.308731
PR03 -11296.050422  -1567.949087 -22788.173809      4.320487
PR05   2536.214992  25107.880679  -3635.540391     38.829022
PR06  10647.453708  17871.217241  14725.905924    165.087379
PR07  11229.792802    869.371215  22911.105087    -28.997671
PR08   6186.795472 -16433.127233  18552.790535     14.626320
PR09  22076.173775  11323.165130   6093.169377     99.484823
PR11  12263.737817  -6493.695732 -21392.792627     20.966709
PR12  -5298.817362 -12740.995847 -21425.090543     76.531978
PR13 -20778.137929 -11876.514401  -8831.354590    -30.572073
PR14 -23565.366653  -4280.146467   8775.641868     44.743441
PR15 -12969.285432   5880.283140  21190.240774    104.619550
PR16   5639.218133  12829.240403  21269.347153      1.004658
PR17 -19380.547660   7011.727513  15072.246988    273.792771
PR18 -19420.071844  16469.160522  -1012.888735     13.423598
PR19  -9698.638103  16914.084501 -16452.594499    -62.436074
PR20   7886.064143   7000.547622 -23218.847750   -395.340669
PR21  19569.777952  -7562.690455 -14480.385795    -83.302521
PR22  18401.290101 -17274.476950   4092.289570   -183.433699
PR23   4174.520731 -15054.783785  20155.438202    264.856029
PR24  -9790.091855  -5311.955282  22924.016742   -186.439625
PR26   4854.442631   9470.524732 -23170.331779      5.289649
EOF
